[{"OBJECT_NAME":"IRIDIUM 158","OBJECT_ID":"2018-061C","EPOCH":"2026-03-09T15:12:46.379232","MEAN_MOTION":14.34217236,"ECCENTRICITY":0.0001997,"INCLINATION":86.3916,"RA_OF_ASC_NODE":98.4013,"ARG_OF_PERICENTER":90.655,"MEAN_ANOMALY":269.4875,"EPHEMERIS_TYPE":0,"CLASSIFICATION_TYPE":"U","NORAD_CAT_ID":43571,"ELEMENT_SET_NO":999,"REV_AT_EPOCH":39909,"BSTAR":-1.4507e-5,"MEAN_MOTION_DOT":-2.1e-7,"MEAN_MOTION_DDOT":0},{"OBJECT_NAME":"COSMOS 1371","OBJECT_ID":"1982-051A","EPOCH":"2026-03-09T23:31:22.309248","MEAN_MOTION":14.3258593,"ECCENTRICITY":0.00135909,"INCLINATION":74.0413,"RA_OF_ASC_NODE":68.5085,"ARG_OF_PERICENTER":201.3611,"MEAN_ANOMALY":158.6975,"EPHEMERIS_TYPE":0,"CLASSIFICATION_TYPE":"U","NORAD_CAT_ID":13241,"ELEMENT_SET_NO":999,"REV_AT_EPOCH":28524,"BSTAR":6.9966542e-5,"MEAN_MOTION_DOT":1.64e-6,"MEAN_MOTION_DDOT":0}]
